{
  "type": "FeatureCollection",
  "features": [
    {
      "type": "Feature",
      "geometry": {
        "type": "Point",
        "coordinates": [
          131.2466,
          33.950612
        ]
      },
      "properties": {
        "name": "株式会社山口銀行宇部支店",
        "address": "山口県宇部市新天町一丁目1番11号",
        "location": "店内ロビー西側入口",
        "diaper": "○",
        "nursing": null,
        "toilet": null,
        "hours": "月曜～金曜：9時～15時(銀行営業日)",
        "description": null
      }
    },
    {
      "type": "Feature",
      "geometry": {
        "type": "Point",
        "coordinates": [
          131.267624,
          33.94261
        ]
      },
      "properties": {
        "name": "株式会社ほけんや２１",
        "address": "山口県宇部市恩田町五丁目5番3号",
        "location": "女性用トイレ",
        "diaper": "○",
        "nursing": "○",
        "toilet": "○",
        "hours": "月曜～金曜：9時～18時",
        "description": "キッズコーナーあり"
      }
    },
    {
      "type": "Feature",
      "geometry": {
        "type": "Point",
        "coordinates": [
          131.216742,
          33.989824
        ]
      },
      "properties": {
        "name": "Hair Base A'nap（ヘアーベース・アナップ）",
        "address": "山口県宇部市大字中野開作242番地3",
        "location": "店内奥別室（専用出入口有）",
        "diaper": "○",
        "nursing": "○",
        "toilet": "○",
        "hours": "火曜～日曜：10時～19時",
        "description": "専用キッズルームで各サービスの利用が可能"
      }
    },
    {
      "type": "Feature",
      "geometry": {
        "type": "Point",
        "coordinates": [
          131.272445,
          33.963604
        ]
      },
      "properties": {
        "name": "ひだまりねっと",
        "address": "山口県宇部市ひらき台二丁目25番8号",
        "location": "事務室内",
        "diaper": "○",
        "nursing": "○",
        "toilet": null,
        "hours": "9時～17時",
        "description": null
      }
    },
    {
      "type": "Feature",
      "geometry": {
        "type": "Point",
        "coordinates": [
          131.205107,
          33.984599
        ]
      },
      "properties": {
        "name": "株式会社イズミ　ゆめタウン宇部",
        "address": "山口県宇部市黒石北三丁目4番1号",
        "location": "2階駄菓子屋ゆめ横丁　横「赤ちゃんの部屋」",
        "diaper": "○",
        "nursing": "○",
        "toilet": "○",
        "hours": "9時30分～20時(営業時間内)",
        "description": null
      }
    },
    {
      "type": "Feature",
      "geometry": {
        "type": "Point",
        "coordinates": [
          131.219719,
          34.0033
        ]
      },
      "properties": {
        "name": "株式会社フジ 西宇部店",
        "address": "山口県宇部市西宇部南四丁目10番10号",
        "location": "1階トイレ",
        "diaper": "○",
        "nursing": "○",
        "toilet": "○",
        "hours": "9時～22時（年中無休）",
        "description": null
      }
    },
    {
      "type": "Feature",
      "geometry": {
        "type": "Point",
        "coordinates": [
          131.256161,
          33.930586
        ]
      },
      "properties": {
        "name": "株式会社フジ フジグラン宇部",
        "address": "山口県宇部市明神町三丁目1番1号",
        "location": "フジグラン宇部店内2階ベビールーム\n各階トイレ",
        "diaper": "○",
        "nursing": "○",
        "toilet": "○",
        "hours": "9時～21時（年中無休）",
        "description": null
      }
    },
    {
      "type": "Feature",
      "geometry": {
        "type": "Point",
        "coordinates": [
          131.238653,
          33.962646
        ]
      },
      "properties": {
        "name": "株式会社ヤマダデンキ　テックランド宇部中央店",
        "address": "山口県宇部市小松原町二丁目7番12号",
        "location": "1階",
        "diaper": "○",
        "nursing": "○",
        "toilet": null,
        "hours": "月曜～日曜の9時～23時",
        "description": null
      }
    },
    {
      "type": "Feature",
      "geometry": {
        "type": "Point",
        "coordinates": [
          131.24938,
          33.94847
        ]
      },
      "properties": {
        "name": "NPO法人うべ★子ども２１",
        "address": "山口県宇部市助田町9番19号",
        "location": "1階事務所内",
        "diaper": "○",
        "nursing": "○",
        "toilet": "○",
        "hours": "月・水・金曜日の11時～16時　※事業を行った翌日は、事業所は休み",
        "description": null
      }
    },
    {
      "type": "Feature",
      "geometry": {
        "type": "Point",
        "coordinates": [
          131.253944,
          33.949968
        ]
      },
      "properties": {
        "name": "生活安全ふれあい館",
        "address": "山口県宇部市常藤町3番1号　宇部警察署敷地内",
        "location": "生活安全ふれあい館内",
        "diaper": "○",
        "nursing": "○",
        "toilet": null,
        "hours": "月曜～木曜の9時～16時30分",
        "description": null
      }
    },
    {
      "type": "Feature",
      "geometry": {
        "type": "Point",
        "coordinates": [
          131.246761,
          33.951623
        ]
      },
      "properties": {
        "name": "宇部市役所　本庁舎　本庁舎棟",
        "address": "山口県宇部市常盤町一丁目7番1号",
        "location": "1階授乳室、1階～5階トイレ(男性・女性)",
        "diaper": "○",
        "nursing": "○",
        "toilet": "○",
        "hours": "1階・2階　7時～22時　※年末年始を除く\n3階～5階　月曜～金曜の9時～16時30分　※年末年始・祝日を除く",
        "description": null
      }
    },
    {
      "type": "Feature",
      "geometry": {
        "type": "Point",
        "coordinates": [
          131.246761,
          33.951623
        ]
      },
      "properties": {
        "name": "宇部市役所　本庁舎　市民交流棟",
        "address": "山口県宇部市常盤町一丁目7番1号",
        "location": "1階・3階授乳室\n1階～3階(男性・女性・みんなのトイレ)",
        "diaper": "○",
        "nursing": "○",
        "toilet": "○",
        "hours": "7時～22時　※年末年始を除く",
        "description": null
      }
    },
    {
      "type": "Feature",
      "geometry": {
        "type": "Point",
        "coordinates": [
          131.339551,
          33.980823
        ]
      },
      "properties": {
        "name": "東岐波市民センター・ふれあいセンター",
        "address": "山口県宇部市大字東岐波字向山3829番地",
        "location": "ふれあいセンター内",
        "diaper": "○",
        "nursing": null,
        "toilet": "○",
        "hours": "9時～22時　※年末年始を除く",
        "description": null
      }
    },
    {
      "type": "Feature",
      "geometry": {
        "type": "Point",
        "coordinates": [
          131.312134,
          33.954579
        ]
      },
      "properties": {
        "name": "西岐波市民センター",
        "address": "山口県宇部市床波六丁目5番22号",
        "location": "1階トイレ",
        "diaper": "○",
        "nursing": null,
        "toilet": "○",
        "hours": "月曜～金曜の9時～16時30分　※年末年始・祝日を除く",
        "description": null
      }
    },
    {
      "type": "Feature",
      "geometry": {
        "type": "Point",
        "coordinates": [
          131.202569,
          33.971335
        ]
      },
      "properties": {
        "name": "原市民センター",
        "address": "山口県宇部市大字妻崎開作字中内濱1990番地",
        "location": "1階多目的トイレ",
        "diaper": "○",
        "nursing": null,
        "toilet": "○",
        "hours": "月曜～金曜の9時～16時30分　※年末年始・祝日を除く",
        "description": "ロビーにベビーキープ、多目的トイレにおむつ替え台、玄関ホールにベビーベッドあり。\n授乳等については適宜対応(会議室等の利用)"
      }
    },
    {
      "type": "Feature",
      "geometry": {
        "type": "Point",
        "coordinates": [
          131.217843,
          33.994203
        ]
      },
      "properties": {
        "name": "厚南市民センター",
        "address": "山口県宇部市厚南中央三丁目1番2号",
        "location": "1階研修室",
        "diaper": "○",
        "nursing": "○",
        "toilet": null,
        "hours": "月曜～金曜の9時～16時30分　※年末年始・祝日を除く",
        "description": null
      }
    },
    {
      "type": "Feature",
      "geometry": {
        "type": "Point",
        "coordinates": [
          131.249045,
          34.024238
        ]
      },
      "properties": {
        "name": "厚東市民センター・ふれあいセンター",
        "address": "山口県宇部市大字棚井字高野原68番地2",
        "location": "ふれあいセンター内",
        "diaper": "○",
        "nursing": "○",
        "toilet": null,
        "hours": "月曜～金曜の8時30分～17時15分 ※年末年始・祝日を除く",
        "description": "多目的トイレにベビーベッドあり。授乳等については適宜対応。"
      }
    },
    {
      "type": "Feature",
      "geometry": {
        "type": "Point",
        "coordinates": [
          131.291719,
          34.056529
        ]
      },
      "properties": {
        "name": "二俣瀬市民センター・ふれあいセンター",
        "address": "山口県宇部市大字車地字寮ノ河内173番地",
        "location": "ふれあいセンター内",
        "diaper": "○",
        "nursing": "○",
        "toilet": "○",
        "hours": "①③9時～22時　※年末年始・祝日を除く\n②9時～16時30分　※土日祝、年末年始を除く",
        "description": "②について、設備はないが、事務室で対応。"
      }
    },
    {
      "type": "Feature",
      "geometry": {
        "type": "Point",
        "coordinates": [
          131.27171,
          33.939488
        ]
      },
      "properties": {
        "name": "恩田ふれあいセンター",
        "address": "山口県宇部市草江一丁目6番7号",
        "location": "別館1階トイレ",
        "diaper": null,
        "nursing": null,
        "toilet": "○",
        "hours": "8時30分～22時 年末年始を除く",
        "description": null
      }
    },
    {
      "type": "Feature",
      "geometry": {
        "type": "Point",
        "coordinates": [
          131.25921,
          33.9354
        ]
      },
      "properties": {
        "name": "岬ふれあいセンター",
        "address": "山口県宇部市松山町五丁目8番10号",
        "location": "2階授乳室＆オムツ室",
        "diaper": "○",
        "nursing": "○",
        "toilet": null,
        "hours": "8時30分～17時15分　※年末年始を除く",
        "description": null
      }
    },
    {
      "type": "Feature",
      "geometry": {
        "type": "Point",
        "coordinates": [
          131.254527,
          33.942652
        ]
      },
      "properties": {
        "name": "見初ふれあいセンター",
        "address": "山口県宇部市昭和町一丁目3番6号",
        "location": "2階女子トイレ",
        "diaper": null,
        "nursing": null,
        "toilet": "○",
        "hours": "8時30分～17時15分　※年末年始を除く",
        "description": null
      }
    },
    {
      "type": "Feature",
      "geometry": {
        "type": "Point",
        "coordinates": [
          131.263271,
          33.952889
        ]
      },
      "properties": {
        "name": "琴芝ふれあいセンター",
        "address": "山口県宇部市西梶返二丁目10番1号",
        "location": "1階和室or2階和室",
        "diaper": "○",
        "nursing": "○",
        "toilet": "○",
        "hours": "9時～17時15分　※年末年始を除く",
        "description": "ベビーキープあり"
      }
    },
    {
      "type": "Feature",
      "geometry": {
        "type": "Point",
        "coordinates": [
          131.2447,
          33.958644
        ]
      },
      "properties": {
        "name": "新川ふれあいセンター",
        "address": "山口県宇部市朝日町8番20号",
        "location": "1階第2会議室(旧管理人室)他",
        "diaper": "△",
        "nursing": "△",
        "toilet": "○",
        "hours": "9時～22時　※年末年始を除く",
        "description": "①について、空部屋を利用しておむつ替えすることは可能だが、和室が空いてなければ会議机上でおむつ替えになる。\n②について、空き部屋の提供は可能。瞬間湯沸かし器と電気ポットは使用可能。\n③について、一応設備はあるが、設置箇所に問題あり。保護者のトイレ中、目が届かない所に設置されている。"
      }
    },
    {
      "type": "Feature",
      "geometry": {
        "type": "Point",
        "coordinates": [
          131.238042,
          33.962069
        ]
      },
      "properties": {
        "name": "鵜の島ふれあいセンター",
        "address": "山口県宇部市鵜の島町7番6号",
        "location": "ふれあいセンター内1階和室(老人憩いの家)",
        "diaper": "○",
        "nursing": null,
        "toilet": null,
        "hours": "9時～22時　※年末年始を除く",
        "description": "行事の際は他所へ移動する場合あり。"
      }
    },
    {
      "type": "Feature",
      "geometry": {
        "type": "Point",
        "coordinates": [
          131.227595,
          33.974826
        ]
      },
      "properties": {
        "name": "藤山ふれあいセンター",
        "address": "山口県宇部市文京町11番13号",
        "location": "1階多目的トイレ等",
        "diaper": "○",
        "nursing": "○",
        "toilet": "○",
        "hours": "9時～22時　※年末年始を除く",
        "description": null
      }
    },
    {
      "type": "Feature",
      "geometry": {
        "type": "Point",
        "coordinates": [
          131.288447,
          33.944552
        ]
      },
      "properties": {
        "name": "常盤ふれあいセンター",
        "address": "山口県宇部市亀浦一丁目1番50号",
        "location": "1階障害者用トイレ",
        "diaper": null,
        "nursing": null,
        "toilet": "○",
        "hours": "9時～22時　※年末年始を除く",
        "description": null
      }
    },
    {
      "type": "Feature",
      "geometry": {
        "type": "Point",
        "coordinates": [
          131.259555,
          33.97848
        ]
      },
      "properties": {
        "name": "小羽山ふれあいセンター",
        "address": "山口県宇部市北小羽山町二丁目6番50号",
        "location": "1階女子トイレ、多目的トイレ",
        "diaper": null,
        "nursing": null,
        "toilet": "○",
        "hours": "9時～17時15分　※年末年始を除く",
        "description": null
      }
    },
    {
      "type": "Feature",
      "geometry": {
        "type": "Point",
        "coordinates": [
          131.207702,
          33.98413
        ]
      },
      "properties": {
        "name": "黒石ふれあいセンター",
        "address": "山口県宇部市大字黒石北三丁目2番37-12号",
        "location": "ふれあいセンター内",
        "diaper": "○",
        "nursing": "○",
        "toilet": null,
        "hours": "9時～17時15分　※年末年始を除く",
        "description": null
      }
    },
    {
      "type": "Feature",
      "geometry": {
        "type": "Point",
        "coordinates": [
          131.220316,
          34.00539
        ]
      },
      "properties": {
        "name": "西宇部ふれあいセンター",
        "address": "山口県宇部市西宇部北三丁目9番15号",
        "location": "ふれあいセンター内",
        "diaper": "○",
        "nursing": "○",
        "toilet": "○",
        "hours": "①③9時～22時　※年末年始を除く\n②8時30分～17時15分　※土日祝、年末年始を除く",
        "description": "①について、1階車いす対応トイレ内におむつ替え台あり。\n②について、専用の設備はないが、事務室で適宜対応。\n③について、1階女子トイレにベビーキープあり。"
      }
    },
    {
      "type": "Feature",
      "geometry": {
        "type": "Point",
        "coordinates": [
          131.202358,
          33.971478
        ]
      },
      "properties": {
        "name": "原ふれあいセンター",
        "address": "山口県宇部市大字妻崎開作字中内濱1990番地",
        "location": "ふれあいセンター内",
        "diaper": "○",
        "nursing": null,
        "toilet": "○",
        "hours": "9時～22時　※年末年始を除く",
        "description": null
      }
    },
    {
      "type": "Feature",
      "geometry": {
        "type": "Point",
        "coordinates": [
          131.242767,
          34.071258
        ]
      },
      "properties": {
        "name": "万倉ふれあいセンター",
        "address": "山口県宇部市大字西万倉字宮ノ下1672番地",
        "location": "ふれあいセンター内",
        "diaper": "○",
        "nursing": null,
        "toilet": "○",
        "hours": "9時～22時　※年末年始を除く",
        "description": null
      }
    },
    {
      "type": "Feature",
      "geometry": {
        "type": "Point",
        "coordinates": [
          131.262687,
          33.962935
        ]
      },
      "properties": {
        "name": "宇部市隣保館上宇部会館\n(上宇部ふれあいセンター)",
        "address": "山口県宇部市中村二丁目6番15号",
        "location": "隣保館内相談室①②、1階女子トイレ③",
        "diaper": "○",
        "nursing": "○",
        "toilet": "○",
        "hours": "8時30分～22時　※年末年始を除く",
        "description": null
      }
    },
    {
      "type": "Feature",
      "geometry": {
        "type": "Point",
        "coordinates": [
          131.218806,
          34.00075
        ]
      },
      "properties": {
        "name": "宇部市隣保館厚南会館\n(厚南ふれあいセンター)",
        "address": "山口県宇部市厚南北一丁目2番24号",
        "location": "1階・2階女子トイレ、1階身障者優先トイレ",
        "diaper": "○",
        "nursing": null,
        "toilet": "○",
        "hours": "8時30分～21時30分　※年末年始を除く",
        "description": "1階身障者優先トイレは③の設備のみ(女子トイレは①③の両方あり)"
      }
    },
    {
      "type": "Feature",
      "geometry": {
        "type": "Point",
        "coordinates": [
          131.308911,
          34.103869
        ]
      },
      "properties": {
        "name": "アクトビレッジおの",
        "address": "山口県宇部市大字小野字大日原7025番地",
        "location": "ビジターセンター内(多目的トイレ・授乳室)",
        "diaper": "○",
        "nursing": "○",
        "toilet": "○",
        "hours": "9時～22時　※年末年始を除く",
        "description": "対象：生後1か月～24か月"
      }
    },
    {
      "type": "Feature",
      "geometry": {
        "type": "Point",
        "coordinates": [
          131.251527,
          33.955158
        ]
      },
      "properties": {
        "name": "宇部市男女共同参画センター・フォーユー",
        "address": "山口県宇部市琴芝町一丁目2番5号",
        "location": "湯沸室・多目的トイレ(おむつ替え・調乳)・託児室(授乳)",
        "diaper": "○",
        "nursing": "○",
        "toilet": "○",
        "hours": "9時～17時",
        "description": "②について、貸出等で利用している時間を除く"
      }
    },
    {
      "type": "Feature",
      "geometry": {
        "type": "Point",
        "coordinates": [
          131.272201,
          33.946812
        ]
      },
      "properties": {
        "name": "俵田翁記念体育館",
        "address": "山口県宇部市恩田町四丁目1番1号",
        "location": "1階西側女子トイレ、1階女子更衣室",
        "diaper": "○",
        "nursing": "○",
        "toilet": "○",
        "hours": "8時～22時　※年末年始を除く",
        "description": null
      }
    },
    {
      "type": "Feature",
      "geometry": {
        "type": "Point",
        "coordinates": [
          131.268512,
          33.945363
        ]
      },
      "properties": {
        "name": "ユーピーアールスタジアム\n(宇部市野球場)",
        "address": "山口県宇部市恩田町四丁目1番4号",
        "location": "1階女子トイレ、1階女子更衣室",
        "diaper": "○",
        "nursing": "○",
        "toilet": "○",
        "hours": "8時～21時　※年末年始を除く",
        "description": null
      }
    },
    {
      "type": "Feature",
      "geometry": {
        "type": "Point",
        "coordinates": [
          131.270163,
          33.945707
        ]
      },
      "properties": {
        "name": "恩田運動公園にぎわい交流施設",
        "address": "山口県宇部市恩田町四丁目1番3号",
        "location": "1階女子トイレ、1階女子更衣室",
        "diaper": "○",
        "nursing": "○",
        "toilet": "○",
        "hours": "8時～22時　※年末年始を除く",
        "description": null
      }
    },
    {
      "type": "Feature",
      "geometry": {
        "type": "Point",
        "coordinates": [
          131.242297,
          33.96281
        ]
      },
      "properties": {
        "name": "西部体育館",
        "address": "山口県宇部市島三丁目9番16号",
        "location": "1階女子トイレ、1階女子更衣室",
        "diaper": "○",
        "nursing": "○",
        "toilet": "○",
        "hours": "8時～22時　※年末年始を除く",
        "description": null
      }
    },
    {
      "type": "Feature",
      "geometry": {
        "type": "Point",
        "coordinates": [
          131.239317,
          34.073401
        ]
      },
      "properties": {
        "name": "楠若者センター",
        "address": "山口県宇部市大字西万倉1518番地5",
        "location": "1階女子更衣室",
        "diaper": "○",
        "nursing": "○",
        "toilet": null,
        "hours": "8時～22時　※年末年始を除く",
        "description": null
      }
    },
    {
      "type": "Feature",
      "geometry": {
        "type": "Point",
        "coordinates": [
          131.257927,
          33.948776
        ]
      },
      "properties": {
        "name": "中央公園テニスコート管理棟",
        "address": "山口県宇部市神原町一丁目7番45号",
        "location": "1階多目的トイレ、1階女子トイレ、1階女子更衣室",
        "diaper": "○",
        "nursing": "○",
        "toilet": "○",
        "hours": "8時～21時　※年末年始を除く",
        "description": null
      }
    },
    {
      "type": "Feature",
      "geometry": {
        "type": "Point",
        "coordinates": [
          131.253482,
          33.954066
        ]
      },
      "properties": {
        "name": "宇部市保健センター",
        "address": "山口県宇部市琴芝町二丁目1番10号",
        "location": "保健センター内",
        "diaper": "○",
        "nursing": null,
        "toilet": "○",
        "hours": "月曜～金曜：8時30分～17時15分",
        "description": null
      }
    },
    {
      "type": "Feature",
      "geometry": {
        "type": "Point",
        "coordinates": [
          131.252708,
          33.953181
        ]
      },
      "properties": {
        "name": "宇部市福祉ふれあいセンター",
        "address": "山口県宇部市琴芝町二丁目4番25号",
        "location": "Ubeハピ(おむつ替え・調乳)、2階及び3階の女性用トイレ(多目的トイレ)",
        "diaper": "○",
        "nursing": "○",
        "toilet": "○",
        "hours": "9時～22時　※毎月第3水曜(休館日)及び年末年始を除く",
        "description": "ubeハピは月～金曜日の8時30分～17時15分"
      }
    },
    {
      "type": "Feature",
      "geometry": {
        "type": "Point",
        "coordinates": [
          131.226476,
          34.045713
        ]
      },
      "properties": {
        "name": "楠総合センター",
        "address": "山口県宇部市大字船木字野田442番地11",
        "location": "1階及び2階の女性用トイレ",
        "diaper": null,
        "nursing": null,
        "toilet": "○",
        "hours": "8時30分～22時　※年末年始は除く",
        "description": null
      }
    },
    {
      "type": "Feature",
      "geometry": {
        "type": "Point",
        "coordinates": [
          131.254427,
          33.952064
        ]
      },
      "properties": {
        "name": "宇部市立神原保育園子育て支援センター",
        "address": "山口県宇部市琴芝町二丁目3番30号",
        "location": "子育て支援センター室内",
        "diaper": "○",
        "nursing": "○",
        "toilet": "○",
        "hours": "月曜～土曜：9時～17時　※年末年始・祝日を除く",
        "description": null
      }
    },
    {
      "type": "Feature",
      "geometry": {
        "type": "Point",
        "coordinates": [
          131.246016,
          33.951053
        ]
      },
      "properties": {
        "name": "ヒストリア宇部\n(旧宇部銀行館)",
        "address": "山口県宇部市新天町一丁目1番1号",
        "location": "1階授乳室及びトイレ",
        "diaper": "○",
        "nursing": "○",
        "toilet": "○",
        "hours": "9時～22時　※毎月第2火曜（休館日）を除く\n※会館のご利用のない場合は18時に閉館",
        "description": null
      }
    },
    {
      "type": "Feature",
      "geometry": {
        "type": "Point",
        "coordinates": [
          131.249452,
          33.955828
        ]
      },
      "properties": {
        "name": "宇部市立図書館",
        "address": "山口県宇部市琴芝町一丁目1番33号",
        "location": "正面玄関ロビー左奥授乳室、1階男女トイレ",
        "diaper": "○",
        "nursing": "○",
        "toilet": "○",
        "hours": "火～金曜：9時～19時\n土日祝：9時～18時　※閉館日を除く",
        "description": "閉館日：月曜・月末(土・日曜にあたる時は翌月の第1火曜、12月は28日)、年末年始、特別整理期間等"
      }
    },
    {
      "type": "Feature",
      "geometry": {
        "type": "Point",
        "coordinates": [
          131.283637,
          33.946868
        ]
      },
      "properties": {
        "name": "ときわレストハウス",
        "address": "山口県宇部市野中三丁目5番17号",
        "location": "1・2階トイレ",
        "diaper": "○",
        "nursing": "○",
        "toilet": "○",
        "hours": "1階：9時～22時　※火曜は9時～17時\n2階：9時～17時　※年末年始を除く",
        "description": "1階はおむつ替え、2階はおむつ替え及び授乳が可能"
      }
    },
    {
      "type": "Feature",
      "geometry": {
        "type": "Point",
        "coordinates": [
          131.287994,
          33.948037
        ]
      },
      "properties": {
        "name": "ときわ湖水ホール",
        "address": "山口県宇部市大字沖宇部254番地",
        "location": "1階、地階トイレ、1階授乳室",
        "diaper": "○",
        "nursing": "○",
        "toilet": "○",
        "hours": "9時～17時　※年末年始を除く",
        "description": "1階トイレはおむつ替え可能、ベビーキープあり\n地階トイレはおむつ替え可能"
      }
    },
    {
      "type": "Feature",
      "geometry": {
        "type": "Point",
        "coordinates": [
          131.200648,
          33.985473
        ]
      },
      "properties": {
        "name": "黒石公園",
        "address": "山口県宇部市大字東須恵字壁田山",
        "location": "多目的トイレ",
        "diaper": "○",
        "nursing": null,
        "toilet": "○",
        "hours": "終日",
        "description": null
      }
    },
    {
      "type": "Feature",
      "geometry": {
        "type": "Point",
        "coordinates": [
          131.271613,
          33.971924
        ]
      },
      "properties": {
        "name": "琴崎街区公園",
        "address": "山口県宇部市大字上宇部字高田",
        "location": "トイレ（①女性用多目的トイレ、③女性用トイレ）",
        "diaper": "○",
        "nursing": null,
        "toilet": "○",
        "hours": "終日",
        "description": null
      }
    },
    {
      "type": "Feature",
      "geometry": {
        "type": "Point",
        "coordinates": [
          131.281767,
          33.948562
        ]
      },
      "properties": {
        "name": "緑と花と彫刻の博物館\n(ときわミュージアム)",
        "address": "山口県宇部市野中三丁目4番29号",
        "location": "ときわミュージアム本館内",
        "diaper": "○",
        "nursing": "○",
        "toilet": "○",
        "hours": "9時～17時\n※休館日(通常火曜)及び年末年始を除く、イベント開催時は変更あり",
        "description": null
      }
    },
    {
      "type": "Feature",
      "geometry": {
        "type": "Point",
        "coordinates": [
          131.243933,
          34.069855
        ]
      },
      "properties": {
        "name": "楠こもれびの郷",
        "address": "山口県宇部市大字西万倉1662番地1",
        "location": "大広間横 授乳室、湯上りロビーキッズコーナー",
        "diaper": "○",
        "nursing": "○",
        "toilet": null,
        "hours": "10時～21時　※毎週水曜を除く",
        "description": null
      }
    },
    {
      "type": "Feature",
      "geometry": {
        "type": "Point",
        "coordinates": [
          131.286999,
          33.942113
        ]
      },
      "properties": {
        "name": "Hair-resort by FLA-FLA",
        "address": "山口県宇部市亀浦二丁目4番8号",
        "location": "1階カットスペース奥、2階個室",
        "diaper": "○",
        "nursing": "○",
        "toilet": "○",
        "hours": "平日：10時～19時\n土日祝：9時～19時　※毎週月曜、第1火曜・第3日曜を除く",
        "description": null
      }
    },
    {
      "type": "Feature",
      "geometry": {
        "type": "Point",
        "coordinates": [
          131.249019,
          33.949134
        ]
      },
      "properties": {
        "name": "株式会社福岡銀行宇部支店",
        "address": "山口県宇部市新天町二丁目1番6号",
        "location": "店内ロビー奥お客様用トイレ",
        "diaper": "○",
        "nursing": null,
        "toilet": "○",
        "hours": "月曜～金曜：9時～11時30分、12時30分～15時(銀行営業日)",
        "description": null
      }
    },
    {
      "type": "Feature",
      "geometry": {
        "type": "Point",
        "coordinates": [
          131.249026,
          33.952357
        ]
      },
      "properties": {
        "name": "西中国信用金庫　宇部支店",
        "address": "山口県宇部市寿町二丁目9番6号",
        "location": "店内ロビー奥お客様用トイレ",
        "diaper": "○",
        "nursing": null,
        "toilet": null,
        "hours": "月曜～金曜：9時～15時(信用金庫営業日)",
        "description": null
      }
    },
    {
      "type": "Feature",
      "geometry": {
        "type": "Point",
        "coordinates": [
          131.294522,
          33.974476
        ]
      },
      "properties": {
        "name": "成建工業株式会社",
        "address": "山口県宇部市大字西岐波字道徳5139番地7",
        "location": "給湯室（調乳）、事務所内女性用トイレ",
        "diaper": "○",
        "nursing": "○",
        "toilet": "○",
        "hours": "月曜～金曜：8時～17時",
        "description": null
      }
    },
    {
      "type": "Feature",
      "geometry": {
        "type": "Point",
        "coordinates": [
          131.323161,
          33.962756
        ]
      },
      "properties": {
        "name": "歯科・矯正歯科アールクリニック",
        "address": "山口県宇部市大字西岐波東原1227番地",
        "location": "トイレ",
        "diaper": "○",
        "nursing": null,
        "toilet": null,
        "hours": "月曜：9時～17時\n火曜～土曜：9時～18時　※木曜・日曜・祝日は除く(休診日)",
        "description": null
      }
    },
    {
      "type": "Feature",
      "geometry": {
        "type": "Point",
        "coordinates": [
          131.223649,
          34.044943
        ]
      },
      "properties": {
        "name": "学びの森くすのき",
        "address": "山口県宇部市大字船木字内番田361番地6",
        "location": "1階トイレ、授乳室",
        "diaper": "○",
        "nursing": "○",
        "toilet": "○",
        "hours": "火～金曜：9時～19時\n土日祝：9時～18時　※閉館日を除く",
        "description": "閉館日：月曜・月末(土・日曜にあたる時は翌月の第1火曜、12月は28日)、年末年始、特別整理期間等"
      }
    },
    {
      "type": "Feature",
      "geometry": {
        "type": "Point",
        "coordinates": [
          131.260121,
          33.945437
        ]
      },
      "properties": {
        "name": "山口土建協同組合",
        "address": "山口県宇部市恩田町一丁目1番18号",
        "location": "事務所、台所（ポットのお湯）、和室",
        "diaper": "○",
        "nursing": "○",
        "toilet": null,
        "hours": "平日及び土曜：9時～18時　※第2、第4土曜は除く",
        "description": "提供場所は3階。\n利用時は1階の亜興産業株式会社事務室へお声かけください。"
      }
    },
    {
      "type": "Feature",
      "geometry": {
        "type": "Point",
        "coordinates": [
          131.271054,
          33.941821
        ]
      },
      "properties": {
        "name": "アルク恩田店",
        "address": "山口県宇部市草江一丁目1番1号",
        "location": "店舗内",
        "diaper": "○",
        "nursing": "○",
        "toilet": null,
        "hours": "月曜～日曜：9時～23時（営業時間内）",
        "description": null
      }
    },
    {
      "type": "Feature",
      "geometry": {
        "type": "Point",
        "coordinates": [
          131.282609,
          33.945071
        ]
      },
      "properties": {
        "name": "ときわ動物園",
        "address": "山口県宇部市則貞三丁目4番1号",
        "location": "ときわ動物園売店横　授乳室",
        "diaper": "○",
        "nursing": "○",
        "toilet": null,
        "hours": "9時～17時\n※動物園及び遊園地の休園日(通常火曜)及び年末年始を除く、イベント開催時は変更あり",
        "description": null
      }
    },
    {
      "type": "Feature",
      "geometry": {
        "type": "Point",
        "coordinates": [
          131.241924559948,
          33.9542046854534
        ]
      },
      "properties": {
        "name": "中央街区公園",
        "address": "山口県宇部市中央町二丁目",
        "location": "女性用トイレ",
        "diaper": "○",
        "nursing": null,
        "toilet": null,
        "hours": "終日",
        "description": null
      }
    },
    {
      "type": "Feature",
      "geometry": {
        "type": "Point",
        "coordinates": [
          131.206516,
          33.983711
        ]
      },
      "properties": {
        "name": "西中国信用金庫　西宇部支店",
        "address": "山口県宇部市黒石北三丁目3番19号",
        "location": "ATMコーナー横",
        "diaper": "○",
        "nursing": null,
        "toilet": "○",
        "hours": "月曜～金曜：9時～15時",
        "description": null
      }
    },
    {
      "type": "Feature",
      "geometry": {
        "type": "Point",
        "coordinates": [
          131.27193,
          33.955024
        ]
      },
      "properties": {
        "name": "ローソン山口大学工学部前店（福島建設株式会社）",
        "address": "山口県宇部市東梶返一丁目10番1号",
        "location": "店舗西側奥多目的トイレ",
        "diaper": null,
        "nursing": "○",
        "toilet": "○",
        "hours": "24時間年中無休",
        "description": null
      }
    },
    {
      "type": "Feature",
      "geometry": {
        "type": "Point",
        "coordinates": [
          131.246434,
          33.96219
        ]
      },
      "properties": {
        "name": "進物の大進宇部店",
        "address": "山口県宇部市島一丁目1番6号",
        "location": "１階西奥喫茶コーナー　授乳室",
        "diaper": "○",
        "nursing": "○",
        "toilet": "○",
        "hours": "10時～19時(年中無休)",
        "description": null
      }
    },
    {
      "type": "Feature",
      "geometry": {
        "type": "Point",
        "coordinates": [
          131.261942,
          33.947382
        ]
      },
      "properties": {
        "name": "コープやまぐちここと　宇部店",
        "address": "山口県宇部市恩田町二丁目2番15号",
        "location": "イートインコーナー奥",
        "diaper": "○",
        "nursing": "○",
        "toilet": "○",
        "hours": "月曜～日曜：10時～18時",
        "description": null
      }
    }
  ]
}